{"type": "FeatureCollection", "features": [ {"type": "Feature", "properties": {"norad_id": 37448, "name": "FENGYUN 1C DEB", "group": "fengyun-1c-debris", "lat": 31.396016690637765, "lon": 42.34373651012048, "alt_km": 751.8655402396644, "timestamp": "2025-12-09T11:33:55.089094+00:00", "meta": {"OBJECT_NAME": "FENGYUN 1C DEB", "OBJECT_ID": "1999-025EHS", "EPOCH": "2025-12-06T10:42:28.876320", "MEAN_MOTION": 13.87045916, "ECCENTRICITY": 0.03071035, "INCLINATION": 99.3213, "RA_OF_ASC_NODE": 45.0657, "ARG_OF_PERICENTER": 75.6085, "MEAN_ANOMALY": 287.8947, "EPHEMERIS_TYPE": 0, "CLASSIFICATION_TYPE": "U", "NORAD_CAT_ID": 37448, "ELEMENT_SET_NO": 999, "REV_AT_EPOCH": 62288, "BSTAR": 0.0025408107, "MEAN_MOTION_DOT": 4.28e-05, "MEAN_MOTION_DDOT": 0}, "tle": {"line1": "1 37448U 99025EHS 25340.44616755  .00004280  00000+0  25408-2 0  9997", "line2": "2 37448  99.3213  45.0657 0307103  75.6085 287.8947 13.87045916622882"}}, "geometry": {"type": "Point", "coordinates": [42.34373651012048, 31.396016690637765]}}, {"type": "Feature", "properties": {"norad_id": 37460, "name": "FENGYUN 1C DEB", "group": "fengyun-1c-debris", "lat": -42.83289700753435, "lon": 167.23988930262863, "alt_km": 700.6531311186309, "timestamp": "2025-12-09T11:33:55.089104+00:00", "meta": {"OBJECT_NAME": "FENGYUN 1C DEB", "OBJECT_ID": "1999-025EJE", "EPOCH": "2025-12-08T10:53:05.307360", "MEAN_MOTION": 14.47840336, "ECCENTRICITY": 0.00565903, "INCLINATION": 98.3779, "RA_OF_ASC_NODE": 158.3686, "ARG_OF_PERICENTER": 303.3518, "MEAN_ANOMALY": 56.2265, "EPHEMERIS_TYPE": 0, "CLASSIFICATION_TYPE": "U", "NORAD_CAT_ID": 37460, "ELEMENT_SET_NO": 999, "REV_AT_EPOCH": 82427, "BSTAR": 0.0027403859, "MEAN_MOTION_DOT": 0.00010316, "MEAN_MOTION_DDOT": 0}, "tle": {"line1": "1 37460U 99025EJE 25342.45353365  .00010316  00000+0  27404-2 0  9994", "line2": "2 37460  98.3779 158.3686 0056590 303.3518  56.2265 14.47840336824279"}}, "geometry": {"type": "Point", "coordinates": [167.23988930262863, -42.83289700753435]}}, {"type": "Feature", "properties": {"norad_id": 37461, "name": "FENGYUN 1C DEB", "group": "fengyun-1c-debris", "lat": -39.39827034782886, "lon": 43.84900264465227, "alt_km": 1535.0222072149918, "timestamp": "2025-12-09T11:33:55.089114+00:00", "meta": {"OBJECT_NAME": "FENGYUN 1C DEB", "OBJECT_ID": "1999-025EJF", "EPOCH": "2025-11-27T22:25:56.122176", "MEAN_MOTION": 12.7907076, "ECCENTRICITY": 0.0667413, "INCLINATION": 99.8664, "RA_OF_ASC_NODE": 221.8984, "ARG_OF_PERICENTER": 359.7811, "MEAN_ANOMALY": 0.291, "EPHEMERIS_TYPE": 0, "CLASSIFICATION_TYPE": "U", "NORAD_CAT_ID": 37461, "ELEMENT_SET_NO": 999, "REV_AT_EPOCH": 51845, "BSTAR": 0.0053613, "MEAN_MOTION_DOT": 3.048e-05, "MEAN_MOTION_DDOT": 0}, "tle": {"line1": "1 37461U 99025EJF 25331.93467734  .00003048  00000+0  53613-2 0  9997", "line2": "2 37461  99.8664 221.8984 0667413 359.7811   0.2910 12.79070760518454"}}, "geometry": {"type": "Point", "coordinates": [43.84900264465227, -39.39827034782886]}}, {"type": "Feature", "properties": {"norad_id": 37464, "name": "FENGYUN 1C DEB", "group": "fengyun-1c-debris", "lat": -75.32894027255892, "lon": 27.17053333613581, "alt_km": 1334.2180194876464, "timestamp": "2025-12-09T11:33:55.089124+00:00", "meta": {"OBJECT_NAME": "FENGYUN 1C DEB", "OBJECT_ID": "1999-025EJJ", "EPOCH": "2025-12-06T12:46:34.874112", "MEAN_MOTION": 13.46848154, "ECCENTRICITY": 0.0451626, "INCLINATION": 102.7074, "RA_OF_ASC_NODE": 262.9496, "ARG_OF_PERICENTER": 131.0925, "MEAN_ANOMALY": 233.0125, "EPHEMERIS_TYPE": 0, "CLASSIFICATION_TYPE": "U", "NORAD_CAT_ID": 37464, "ELEMENT_SET_NO": 999, "REV_AT_EPOCH": 60838, "BSTAR": 0.0030977, "MEAN_MOTION_DOT": 3.437e-05, "MEAN_MOTION_DDOT": 0}, "tle": {"line1": "1 37464U 99025EJJ 25340.53234808  .00003437  00000+0  30977-2 0  9990", "line2": "2 37464 102.7074 262.9496 0451626 131.0925 233.0125 13.46848154608385"}}, "geometry": {"type": "Point", "coordinates": [27.17053333613581, -75.32894027255892]}}, {"type": "Feature", "properties": {"norad_id": 37470, "name": "FENGYUN 1C DEB", "group": "fengyun-1c-debris", "lat": -64.48847762144801, "lon": -72.12845612470488, "alt_km": 573.0827710184658, "timestamp": "2025-12-09T11:33:55.089134+00:00", "meta": {"OBJECT_NAME": "FENGYUN 1C DEB", "OBJECT_ID": "1999-025EJQ", "EPOCH": "2025-12-02T08:43:26.114016", "MEAN_MOTION": 14.99042865, "ECCENTRICITY": 0.00053598, "INCLINATION": 98.6674, "RA_OF_ASC_NODE": 118.5972, "ARG_OF_PERICENTER": 185.6749, "MEAN_ANOMALY": 174.4411, "EPHEMERIS_TYPE": 0, "CLASSIFICATION_TYPE": "U", "NORAD_CAT_ID": 37470, "ELEMENT_SET_NO": 999, "REV_AT_EPOCH": 65306, "BSTAR": 0.0063565181, "MEAN_MOTION_DOT": 0.00077884, "MEAN_MOTION_DDOT": 0}, "tle": {"line1": "1 37470U 99025EJQ 25336.36349669  .00077884  00000+0  63565-2 0  9991", "line2": "2 37470  98.6674 118.5972 0005359 185.6749 174.4411 14.99042865653068"}}, "geometry": {"type": "Point", "coordinates": [-72.12845612470488, -64.48847762144801]}}, {"type": "Feature", "properties": {"norad_id": 37474, "name": "FENGYUN 1C DEB", "group": "fengyun-1c-debris", "lat": 37.547130725545465, "lon": 15.332744614489947, "alt_km": 549.7420369862048, "timestamp": "2025-12-09T11:33:55.089144+00:00", "meta": {"OBJECT_NAME": "FENGYUN 1C DEB", "OBJECT_ID": "1999-025EJU", "EPOCH": "2025-12-08T07:15:02.876832", "MEAN_MOTION": 14.74997247, "ECCENTRICITY": 0.01320555, "INCLINATION": 99.1645, "RA_OF_ASC_NODE": 186.8701, "ARG_OF_PERICENTER": 148.7711, "MEAN_ANOMALY": 212.1426, "EPHEMERIS_TYPE": 0, "CLASSIFICATION_TYPE": "U", "NORAD_CAT_ID": 37474, "ELEMENT_SET_NO": 999, "REV_AT_EPOCH": 62310, "BSTAR": 0.001429737, "MEAN_MOTION_DOT": 0.00011023, "MEAN_MOTION_DDOT": 0}, "tle": {"line1": "1 37474U 99025EJU 25342.30211663  .00011023  00000+0  14297-2 0  9999", "line2": "2 37474  99.1645 186.8701 0132055 148.7711 212.1426 14.74997247623101"}}, "geometry": {"type": "Point", "coordinates": [15.332744614489947, 37.547130725545465]}}, {"type": "Feature", "properties": {"norad_id": 37477, "name": "FENGYUN 1C DEB", "group": "fengyun-1c-debris", "lat": -67.5063144620306, "lon": 9.689900051344136, "alt_km": 860.1171757788825, "timestamp": "2025-12-09T11:33:55.089154+00:00", "meta": {"OBJECT_NAME": "FENGYUN 1C DEB", "OBJECT_ID": "1999-025EJX", "EPOCH": "2025-12-05T11:28:45.537312", "MEAN_MOTION": 14.19689266, "ECCENTRICITY": 0.0036971, "INCLINATION": 98.6048, "RA_OF_ASC_NODE": 344.3504, "ARG_OF_PERICENTER": 127.046, "MEAN_ANOMALY": 233.4107, "EPHEMERIS_TYPE": 0, "CLASSIFICATION_TYPE": "U", "NORAD_CAT_ID": 37477, "ELEMENT_SET_NO": 999, "REV_AT_EPOCH": 81811, "BSTAR": 0.001143971, "MEAN_MOTION_DOT": 2.393e-05, "MEAN_MOTION_DDOT": 0}, "tle": {"line1": "1 37477U 99025EJX 25339.47830483  .00002393  00000+0  11440-2 0  9990", "line2": "2 37477  98.6048 344.3504 0036971 127.0460 233.4107 14.19689266818115"}}, "geometry": {"type": "Point", "coordinates": [9.689900051344136, -67.5063144620306]}}, {"type": "Feature", "properties": {"norad_id": 37478, "name": "FENGYUN 1C DEB", "group": "fengyun-1c-debris", "lat": -22.467271500832272, "lon": -29.69274301444499, "alt_km": 843.6566245539962, "timestamp": "2025-12-09T11:33:55.089164+00:00", "meta": {"OBJECT_NAME": "FENGYUN 1C DEB", "OBJECT_ID": "1999-025EJY", "EPOCH": "2025-12-05T17:22:19.375968", "MEAN_MOTION": 13.02904965, "ECCENTRICITY": 0.05487468, "INCLINATION": 99.6454, "RA_OF_ASC_NODE": 322.9064, "ARG_OF_PERICENTER": 335.2664, "MEAN_ANOMALY": 22.3015, "EPHEMERIS_TYPE": 0, "CLASSIFICATION_TYPE": "U", "NORAD_CAT_ID": 37478, "ELEMENT_SET_NO": 999, "REV_AT_EPOCH": 56470, "BSTAR": 0.0085592923, "MEAN_MOTION_DOT": 5.462e-05, "MEAN_MOTION_DDOT": 0}, "tle": {"line1": "1 37478U 99025EJY 25339.72383537  .00005462  00000+0  85593-2 0  9992", "line2": "2 37478  99.6454 322.9064 0548746 335.2664  22.3015 13.02904965564701"}}, "geometry": {"type": "Point", "coordinates": [-29.69274301444499, -22.467271500832272]}}, {"type": "Feature", "properties": {"norad_id": 37589, "name": "FENGYUN 1C DEB", "group": "fengyun-1c-debris", "lat": 66.1337659737875, "lon": 87.23355856632968, "alt_km": 941.9305826119644, "timestamp": "2025-12-09T11:33:55.089174+00:00", "meta": {"OBJECT_NAME": "FENGYUN 1C DEB", "OBJECT_ID": "1999-025EKH", "EPOCH": "2025-12-02T23:49:55.171488", "MEAN_MOTION": 14.07988933, "ECCENTRICITY": 0.01206156, "INCLINATION": 99.0733, "RA_OF_ASC_NODE": 239.5393, "ARG_OF_PERICENTER": 291.4169, "MEAN_ANOMALY": 67.4168, "EPHEMERIS_TYPE": 0, "CLASSIFICATION_TYPE": "U", "NORAD_CAT_ID": 37589, "ELEMENT_SET_NO": 999, "REV_AT_EPOCH": 82447, "BSTAR": 0.0045555953, "MEAN_MOTION_DOT": 8.24e-05, "MEAN_MOTION_DDOT": 0}, "tle": {"line1": "1 37589U 99025EKH 25336.99299967  .00008240  00000+0  45556-2 0  9996", "line2": "2 37589  99.0733 239.5393 0120615 291.4169  67.4168 14.07988933824475"}}, "geometry": {"type": "Point", "coordinates": [87.23355856632968, 66.1337659737875]}}, {"type": "Feature", "properties": {"norad_id": 37594, "name": "FENGYUN 1C DEB", "group": "fengyun-1c-debris", "lat": -79.20867406607866, "lon": 66.67793601170342, "alt_km": 801.5058865354922, "timestamp": "2025-12-09T11:33:55.089184+00:00", "meta": {"OBJECT_NAME": "FENGYUN 1C DEB", "OBJECT_ID": "1999-025EKN", "EPOCH": "2025-12-01T20:10:06.711744", "MEAN_MOTION": 14.11100402, "ECCENTRICITY": 0.00849769, "INCLINATION": 98.7356, "RA_OF_ASC_NODE": 5.4727, "ARG_OF_PERICENTER": 301.0362, "MEAN_ANOMALY": 58.2487, "EPHEMERIS_TYPE": 0, "CLASSIFICATION_TYPE": "U", "NORAD_CAT_ID": 37594, "ELEMENT_SET_NO": 999, "REV_AT_EPOCH": 77608, "BSTAR": 0.00031068206, "MEAN_MOTION_DOT": 5.35e-06, "MEAN_MOTION_DDOT": 0}, "tle": {"line1": "1 37594U 99025EKN 25335.84035546  .00000535  00000+0  31068-3 0  9999", "line2": "2 37594  98.7356   5.4727 0084976 301.0362  58.2487 14.11100402776088"}}, "geometry": {"type": "Point", "coordinates": [66.67793601170342, -79.20867406607866]}}]}